{
    "links": {
        "self": "http://www.neowsapp.com/rest/v1/neo/3599390?api_key=iIulBulltgU6a56xZRHN4H3l9WmuAYTsLGpBGhQ2"
    },
    "id": "3599390",
    "neo_reference_id": "3599390",
    "name": "(2012 CQ46)",
    "designation": "2012 CQ46",
    "nasa_jpl_url": "http://ssd.jpl.nasa.gov/sbdb.cgi?sstr=3599390",
    "absolute_magnitude_h": 27.2,
    "estimated_diameter": {
        "kilometers": {
            "estimated_diameter_min": 0.0096506147,
            "estimated_diameter_max": 0.0215794305
        },
        "meters": {
            "estimated_diameter_min": 9.6506146958,
            "estimated_diameter_max": 21.5794304844
        },
        "miles": {
            "estimated_diameter_min": 0.0059966121,
            "estimated_diameter_max": 0.0134088323
        },
        "feet": {
            "estimated_diameter_min": 31.6621227185,
            "estimated_diameter_max": 70.7986587106
        }
    },
    "is_potentially_hazardous_asteroid": false,
    "close_approach_data": [
        {
            "close_approach_date": "2012-02-05",
            "close_approach_date_full": "2012-Feb-05 22:22",
            "epoch_date_close_approach": 1328480520000,
            "relative_velocity": {
                "kilometers_per_second": "12.9733794502",
                "kilometers_per_hour": "46704.166020805",
                "miles_per_hour": "29020.1524922052"
            },
            "miss_distance": {
                "astronomical": "0.0092729578",
                "lunar": "3.6071805842",
                "kilometers": "1387214.735479886",
                "miles": "861975.2663029868"
            },
            "orbiting_body": "Earth"
        },
        {
            "close_approach_date": "2012-02-06",
            "close_approach_date_full": "2012-Feb-06 06:01",
            "epoch_date_close_approach": 1328508060000,
            "relative_velocity": {
                "kilometers_per_second": "12.7339619131",
                "kilometers_per_hour": "45842.2628872111",
                "miles_per_hour": "28484.5994034452"
            },
            "miss_distance": {
                "astronomical": "0.0094031028",
                "lunar": "3.6578069892",
                "kilometers": "1406684.150271036",
                "miles": "874072.9996748568"
            },
            "orbiting_body": "Moon"
        },
        {
            "close_approach_date": "2012-05-24",
            "close_approach_date_full": "2012-May-24 03:20",
            "epoch_date_close_approach": 1337829600000,
            "relative_velocity": {
                "kilometers_per_second": "8.8135093835",
                "kilometers_per_hour": "31728.6337807356",
                "miles_per_hour": "19714.9391400354"
            },
            "miss_distance": {
                "astronomical": "0.040945472",
                "lunar": "15.927788608",
                "kilometers": "6125355.39734464",
                "miles": "3806119.351810432"
            },
            "orbiting_body": "Mars"
        }
    ],
    "orbital_data": {
        "orbit_id": "4",
        "orbit_determination_date": "2017-04-06 08:50:57",
        "first_observation_date": "2012-02-13",
        "last_observation_date": "2012-02-15",
        "data_arc_in_days": 2,
        "observations_used": 7,
        "orbit_uncertainty": "9",
        "minimum_orbit_intersection": ".00925892",
        "jupiter_tisserand_invariant": "5.186",
        "epoch_osculation": "2455971.5",
        "eccentricity": ".4373953120978733",
        "semi_major_axis": "1.20416095442427",
        "inclination": ".6202067651002098",
        "ascending_node_longitude": "16.34617190026936",
        "orbital_period": "482.6421402480986",
        "perihelion_distance": ".6774665979477935",
        "perihelion_argument": "28.34201873077945",
        "aphelion_distance": "1.730855310900747",
        "perihelion_time": "2455906.157269425705",
        "mean_anomaly": "48.73876739120662",
        "mean_motion": ".7458942557625504",
        "equinox": "J2000",
        "orbit_class": {
            "orbit_class_type": "APO",
            "orbit_class_description": "Near-Earth asteroid orbits which cross the Earth’s orbit similar to that of 1862 Apollo",
            "orbit_class_range": "a (semi-major axis) > 1.0 AU; q (perihelion) < 1.017 AU"
        }
    },
    "is_sentry_object": false
}